SL-8 R/B                
1 15483U 85006B   26178.92948742  .00000160  00000+0  61864-4 0  9994
2 15483  74.0459  58.2965 0019123 303.7667  67.1070 14.37838955169870
SL-12 R/B(2)            
1 15772U 85042D   26178.87634472  .00000114  00000+0  72538-4 0  9990
2 15772  71.1065 214.9329 0036847 311.7522 220.9796 14.22007723130055
SL-14 R/B               
1 15945U 85069B   26178.80466082  .00000411  00000+0  43605-4 0  9997
2 15945  82.5274 281.3806 0018673 182.8550 177.2563 14.86523197189191
SL-16 R/B               
1 16182U 85097B   26178.65745583  .00000169  00000+0  10855-3 0  9991
2 16182  71.0034 269.0349 0005324  88.4811  23.0355 14.16613727102809
SL-14 R/B               
1 16496U 86006B   26178.88576399  .00000503  00000+0  50732-4 0  9993
2 16496  82.5268 156.0452 0074682 267.2832  91.9835 14.86955080165585
COSMOS 1743             
1 16719U 86034A   26178.87227841  .00048308  00000+0  43606-3 0  9992
2 16719  82.5276 317.3632 0004663 231.5147 128.5696 15.67927696197465
SL-14 R/B               
1 16792U 86046B   26178.86173077  .00000430  00000+0  46622-4 0  9992
2 16792  82.4822 336.0877 0022062 221.0149 138.9409 14.85678340142768
SL-14 R/B               
1 16882U 86055B   26178.84412390  .00000382  00000+0  41178-4 0  9991
2 16882  82.5198  23.1126 0018093 331.9768  38.4132 14.85729713135729
AJISAI (EGS)            
1 16908U 86061A   26178.97032139 -.00000115  00000+0 -12369-3 0  9995
2 16908  50.0085 114.2368 0011156 207.9436 192.0281 12.44516754481739
SL-14 R/B               
1 17567U 87024B   26178.92242386  .00000406  00000+0  43377-4 0  9994
2 17567  82.5282 349.1587 0016733 254.3704 105.5666 14.86220143104507
COSMOS 1833             
1 17589U 87027A   26178.86830319  .00000274  00000+0  17177-3 0  9994
2 17589  70.9203  94.4182 0023192  37.2626 323.0098 14.13057997 25888
SL-16 R/B               
1 17590U 87027B   26178.87433407  .00000253  00000+0  14925-3 0  9999
2 17590  71.0033  44.3081 0006779 300.8433  59.2023 14.17173214 30957
SL-14 R/B               
1 17912U 87038B   26178.77203789  .00000351  00000+0  37815-4 0  9999
2 17912  82.5003 193.1018 0019844 156.4764 203.7364 14.85450979 95575
COSMOS 1844             
1 17973U 87041A   26178.92635047  .00000229  00000+0  14373-3 0  9990
2 17973  70.8969 161.6542 0032319 219.7666 140.1087 14.14569176 19171
SL-14 R/B               
1 18153U 87055B   26178.93163045  .00000347  00000+0  37048-4 0  9997
2 18153  82.4987 245.1010 0020874  13.4594 346.7174 14.85717451 86300
COSMOS 1867             
1 18187U 87060A   26178.89180594 -.00000052  00000+0  18127-4 0  9994
2 18187  65.0116 358.0790 0016759 282.1198  77.8008 14.31516876 35715
SL-14 R/B               
1 18749U 88001B   26178.86704648  .00000355  00000+0  38192-4 0  9992
2 18749  82.5134  91.7268 0016747 231.0238 128.9487 14.85616444 58387
COSMOS 1933             
1 18958U 88020A   26178.90869541  .00004332  00000+0  20692-3 0  9998
2 18958  82.5125 141.8176 0004726 151.4671 208.6823 15.18781074 66955
SL-3 R/B                
1 19046U 88032B   26178.90170710  .00004173  00000+0  19040-3 0  9991
2 19046  97.5254 161.9320 0024664 205.5970 154.4046 15.20914816 68854
SL-16 R/B               
1 19120U 88039B   26178.76063601 -.00000140  00000+0 -43526-4 0  9994
2 19120  71.0128 195.8003 0021615 177.1143 183.0111 14.19630713974009
COSMOS 1953             
1 19210U 88050A   26178.67891732  .00006753  00000+0  23011-3 0  9991
2 19210  82.5076  47.4538 0012455  94.4812 265.7852 15.30116334 54594
SL-8 R/B                
1 19257U 88053B   26178.65108331  .00000161  00000+0  60491-4 0  9990
2 19257  74.0478 269.7692 0019246  61.2411  44.4008 14.38971146992413
COSMOS 1975             
1 19573U 88093A   26178.94992019  .00007399  00000+0  25737-3 0  9994
2 19573  82.5187   6.8741 0012256 136.1447 224.0768 15.29461753 36254
SL-14 R/B               
1 19574U 88093B   26178.86304450  .00000393  00000+0  42319-4 0  9995
2 19574  82.5318 298.6219 0021520  37.1114 113.3577 14.85749381 17374
SL-16 R/B               
1 19650U 88102B   26178.74167906  .00000249  00000+0  14959-3 0  9999
2 19650  71.0003 279.9308 0015229 210.4810 149.5429 14.16167440942471
INTERCOSMOS 24          
1 20261U 89080A   26178.65884290  .00000676  00000+0  19185-3 0  9997
2 20261  82.6054  32.8309 1188084  37.6313 330.2167 12.59676123680644
SL-14 R/B               
1 20262U 89080C   26178.80204425  .00000135  00000+0  40487-4 0  9991
2 20262  82.5943 102.4884 1228398 293.1045  54.5293 12.50574639673915
DELTA 1 R/B             
1 20323U 89089B   26178.77213169  .00000297  00000+0  81701-4 0  9992
2 20323  97.0633   8.6365 0070084 133.8901 226.8115 14.50737507911692
ARIANE 40 R/B           
1 20443U 90005H   26178.88485511  .00000235  00000+0  88178-4 0  9996
2 20443  98.2955 236.1683 0009163 227.9957 132.0452 14.39932629908666
DELTA 2 R/B(1)          
1 20453U 90008B   26178.36713400  .00094808  00000+0  65409-3 0  9994
2 20453  35.5987 167.4771 0064473 210.8595 148.8347 15.70403728943301
