OBJECT_NAME,OBJECT_ID,EPOCH,MEAN_MOTION,ECCENTRICITY,INCLINATION,RA_OF_ASC_NODE,ARG_OF_PERICENTER,MEAN_ANOMALY,EPHEMERIS_TYPE,CLASSIFICATION_TYPE,NORAD_CAT_ID,ELEMENT_SET_NO,REV_AT_EPOCH,BSTAR,MEAN_MOTION_DOT,MEAN_MOTION_DDOT
SL-8 R/B,1985-006B,2026-06-27T22:18:27.713088,14.37838955,.00191231,74.0459,58.2965,303.7667,67.1070,0,U,15483,999,16987,.61864455E-4,.16E-5,0
SL-12 R/B(2),1985-042D,2026-06-27T21:01:56.183808,14.22007723,.00368476,71.1065,214.9329,311.7522,220.9796,0,U,15772,999,13005,.7253794E-4,.114E-5,0
SL-14 R/B,1985-069B,2026-06-27T19:18:42.694848,14.86523197,.00186731,82.5274,281.3806,182.8550,177.2563,0,U,15945,999,18919,.43604806E-4,.411E-5,0
SL-16 R/B,1985-097B,2026-06-27T15:46:44.183712,14.16613727,.00053249,71.0034,269.0349,88.4811,23.0355,0,U,16182,999,10280,.10855497E-3,.169E-5,0
SL-14 R/B,1986-006B,2026-06-27T21:15:30.008736,14.86955080,.00746825,82.5268,156.0452,267.2832,91.9835,0,U,16496,999,16558,.50731791E-4,.503E-5,0
COSMOS 1743,1986-034A,2026-06-27T20:56:04.854624,15.67927696,.00046631,82.5276,317.3632,231.5147,128.5696,0,U,16719,999,19746,.43606157E-3,.48308E-3,0
SL-14 R/B,1986-046B,2026-06-27T20:40:53.538528,14.85678340,.00220628,82.4822,336.0877,221.0149,138.9409,0,U,16792,999,14276,.46622466E-4,.43E-5,0
SL-14 R/B,1986-055B,2026-06-27T20:15:32.304960,14.85729713,.00180932,82.5198,23.1126,331.9768,38.4132,0,U,16882,999,13572,.41178287E-4,.382E-5,0
AJISAI (EGS),1986-061A,2026-06-27T23:17:15.768096,12.44516754,.00111564,50.0085,114.2368,207.9436,192.0281,0,U,16908,999,48173,-.12368967E-3,-.115E-5,0
SL-14 R/B,1987-024B,2026-06-27T22:08:17.421504,14.86220143,.00167337,82.5282,349.1587,254.3704,105.5666,0,U,17567,999,10450,.43376801E-4,.406E-5,0
COSMOS 1833,1987-027A,2026-06-27T20:50:21.395616,14.13057997,.00231924,70.9203,94.4182,37.2626,323.0098,0,U,17589,999,2588,.17177309E-3,.274E-5,0
SL-16 R/B,1987-027B,2026-06-27T20:59:02.463648,14.17173214,.00067793,71.0033,44.3081,300.8433,59.2023,0,U,17590,999,3095,.14925354E-3,.253E-5,0
SL-14 R/B,1987-038B,2026-06-27T18:31:44.073696,14.85450979,.00198442,82.5003,193.1018,156.4764,203.7364,0,U,17912,999,9557,.37815408E-4,.351E-5,0
COSMOS 1844,1987-041A,2026-06-27T22:13:56.680608,14.14569176,.00323197,70.8969,161.6542,219.7666,140.1087,0,U,17973,999,1917,.14372525E-3,.229E-5,0
SL-14 R/B,1987-055B,2026-06-27T22:21:32.870880,14.85717451,.00208741,82.4987,245.1010,13.4594,346.7174,0,U,18153,999,8630,.37047922E-4,.347E-5,0
COSMOS 1867,1987-060A,2026-06-27T21:24:12.033216,14.31516876,.00167592,65.0116,358.0790,282.1198,77.8008,0,U,18187,999,3571,.18126967E-4,-.52E-6,0
SL-14 R/B,1988-001B,2026-06-27T20:48:32.815872,14.85616444,.00167474,82.5134,91.7268,231.0238,128.9487,0,U,18749,999,5838,.38191678E-4,.355E-5,0
COSMOS 1933,1988-020A,2026-06-27T21:48:31.283424,15.18781074,.00047264,82.5125,141.8176,151.4671,208.6823,0,U,18958,999,6695,.20691688E-3,.4332E-4,0
SL-3 R/B,1988-032B,2026-06-27T21:38:27.493440,15.20914816,.00246645,97.5254,161.9320,205.5970,154.4046,0,U,19046,999,6885,.19040015E-3,.4173E-4,0
SL-16 R/B,1988-039B,2026-06-27T18:15:18.951264,14.19630713,.00216154,71.0128,195.8003,177.1143,183.0111,0,U,19120,999,97400,-.4352594E-4,-.14E-5,0
COSMOS 1953,1988-050A,2026-06-27T16:17:38.456448,15.30116334,.00124554,82.5076,47.4538,94.4812,265.7852,0,U,19210,999,5459,.23010902E-3,.6753E-4,0
SL-8 R/B,1988-053B,2026-06-27T15:37:33.597984,14.38971146,.00192461,74.0478,269.7692,61.2411,44.4008,0,U,19257,999,99241,.60491011E-4,.161E-5,0
COSMOS 1975,1988-093A,2026-06-27T22:47:53.104416,15.29461753,.00122569,82.5187,6.8741,136.1447,224.0768,0,U,19573,999,3625,.2573705E-3,.7399E-4,0
SL-14 R/B,1988-093B,2026-06-27T20:42:47.044800,14.85749381,.00215205,82.5318,298.6219,37.1114,113.3577,0,U,19574,999,1737,.42318529E-4,.393E-5,0
SL-16 R/B,1988-102B,2026-06-27T17:48:01.070784,14.16167440,.00152293,71.0003,279.9308,210.4810,149.5429,0,U,19650,999,94247,.14959182E-3,.249E-5,0
INTERCOSMOS 24,1989-080A,2026-06-27T15:48:44.026560,12.59676123,.11880848,82.6054,32.8309,37.6313,330.2167,0,U,20261,999,68064,.19185434E-3,.676E-5,0
SL-14 R/B,1989-080C,2026-06-27T19:14:56.623200,12.50574639,.1228398,82.5943,102.4884,293.1045,54.5293,0,U,20262,999,67391,.40486627E-4,.135E-5,0
DELTA 1 R/B,1989-089B,2026-06-27T18:31:52.178016,14.50737507,.00700847,97.0633,8.6365,133.8901,226.8115,0,U,20323,999,91169,.81700766E-4,.297E-5,0
ARIANE 40 R/B,1990-005H,2026-06-27T21:14:11.481504,14.39932629,.00091635,98.2955,236.1683,227.9957,132.0452,0,U,20443,999,90866,.88177721E-4,.235E-5,0
DELTA 2 R/B(1),1990-008B,2026-06-27T08:48:40.377600,15.70403728,.0064473,35.5987,167.4771,210.8595,148.8347,0,U,20453,999,94330,.65408812E-3,.94808E-3,0
